[Satellite]
VERSION=1.1
NAME=GPM-CORE
NICKNAME=GPM-CORE
TLE1=1 39574U 14009C   15054.86935973  .00015673  00000-0  22534-3 0  9998
TLE2=2 39574  65.0214 271.4713 0011484 264.7774  95.2053 15.56191009 56189
